CAPELLA-11 (ACADIA-1)   
1 57693U 23126A   26198.00479735  .00001969  00000+0  25504-3 0  9998
2 57693  53.0067  55.4245 0002338 134.2199 225.8973 14.85083670156553
CAPELLA-14 (ACADIA-4)   
1 59444U 24066C   26197.42798986  .00005130  00000+0  34717-3 0  9995
2 59444  45.6012 101.4049 0002747  73.4558 286.6628 15.07675032116908
CAPELLA-13 (ACADIA-3)   
1 60419U 24142A   26198.73440557  .00001873  00000+0  22956-3 0  9999
2 60419  53.0047 284.2299 0001352  88.4837 271.6298 14.87654562104958
CAPELLA-15 (ACADIA-5)   
1 60544U 24149CE  26198.09170480  .00001884  00000+0  18938-3 0  9996
2 60544  97.6761 270.2449 0002996 337.8678  22.2411 14.92399165104313
CAPELLA-17 (ACADIA-7)   
1 64583U 25135BH  26198.86285632  .00003446  00000+0  34858-3 0  9995
2 64583  97.7712 312.0333 0004174 237.9049 122.1764 14.91637579 58420
CAPELLA-16 (ACADIA-6)   
1 65318U 25188D   26198.63220036  .00003306  00000+0  31478-3 0  9992
2 65318  97.7378 273.3290 0005869 128.2944 231.8805 14.94066782 48466
CAPELLA-19 (ACADIA-9)   
1 67384U 26004X   26198.89087739  .00002516  00000+0  28938-3 0  9993
2 67384  97.8008 196.7094 0001514  95.3919 264.7469 14.86653316 27836
CAPELLA-18 (ACADIA-8)   
1 67385U 26004Y   26198.96822630  .00002147  00000+0  24789-3 0  9999
2 67385  97.8017 196.9395 0001441  96.5323 263.6057 14.86643746 27853
CAPELLA-20 (ACADIA-10)  
1 68485U 26067BX  26198.61339620  .00002538  00000+0  25780-3 0  9990
2 68485  97.7591 156.4253 0001278 146.6713 213.4586 14.91695190 16262
