{"fetched_at":"2026-07-18T06:27:59.325Z","source":"https://celestrak.org/NORAD/elements/gp.php?NAME=CAPELLA&FORMAT=JSON","constellation":"capella","records":[{"OBJECT_NAME":"CAPELLA-11 (ACADIA-1)","OBJECT_ID":"2023-126A","EPOCH":"2026-07-17T00:06:54.491040","CLASSIFICATION_TYPE":"U","MEAN_MOTION":14.8508367,"ECCENTRICITY":0.00023385,"INCLINATION":53.0067,"RA_OF_ASC_NODE":55.4245,"ARG_OF_PERICENTER":134.2199,"MEAN_ANOMALY":225.8973,"EPHEMERIS_TYPE":0,"NORAD_CAT_ID":57693,"ELEMENT_SET_NO":999,"REV_AT_EPOCH":15655,"BSTAR":0.00025504119,"MEAN_MOTION_DOT":0.00001969,"MEAN_MOTION_DDOT":0},{"OBJECT_NAME":"CAPELLA-14 (ACADIA-4)","OBJECT_ID":"2024-066C","EPOCH":"2026-07-16T10:16:18.323904","CLASSIFICATION_TYPE":"U","MEAN_MOTION":15.07675032,"ECCENTRICITY":0.0002747,"INCLINATION":45.6012,"RA_OF_ASC_NODE":101.4049,"ARG_OF_PERICENTER":73.4558,"MEAN_ANOMALY":286.6628,"EPHEMERIS_TYPE":0,"NORAD_CAT_ID":59444,"ELEMENT_SET_NO":999,"REV_AT_EPOCH":11690,"BSTAR":0.00034717,"MEAN_MOTION_DOT":0.0000513,"MEAN_MOTION_DDOT":0},{"OBJECT_NAME":"CAPELLA-13 (ACADIA-3)","OBJECT_ID":"2024-142A","EPOCH":"2026-07-17T17:37:32.641248","CLASSIFICATION_TYPE":"U","MEAN_MOTION":14.87654562,"ECCENTRICITY":0.0001352,"INCLINATION":53.0047,"RA_OF_ASC_NODE":284.2299,"ARG_OF_PERICENTER":88.4837,"MEAN_ANOMALY":271.6298,"EPHEMERIS_TYPE":0,"NORAD_CAT_ID":60419,"ELEMENT_SET_NO":999,"REV_AT_EPOCH":10495,"BSTAR":0.00022956442,"MEAN_MOTION_DOT":0.00001873,"MEAN_MOTION_DDOT":0},{"OBJECT_NAME":"CAPELLA-15 (ACADIA-5)","OBJECT_ID":"2024-149CE","EPOCH":"2026-07-17T02:12:03.294720","CLASSIFICATION_TYPE":"U","MEAN_MOTION":14.92399165,"ECCENTRICITY":0.0002996,"INCLINATION":97.6761,"RA_OF_ASC_NODE":270.2449,"ARG_OF_PERICENTER":337.8678,"MEAN_ANOMALY":22.2411,"EPHEMERIS_TYPE":0,"NORAD_CAT_ID":60544,"ELEMENT_SET_NO":999,"REV_AT_EPOCH":10431,"BSTAR":0.00018938,"MEAN_MOTION_DOT":0.00001884,"MEAN_MOTION_DDOT":0},{"OBJECT_NAME":"CAPELLA-17 (ACADIA-7)","OBJECT_ID":"2025-135BH","EPOCH":"2026-07-17T20:42:30.786048","CLASSIFICATION_TYPE":"U","MEAN_MOTION":14.91637579,"ECCENTRICITY":0.00041744,"INCLINATION":97.7712,"RA_OF_ASC_NODE":312.0333,"ARG_OF_PERICENTER":237.9049,"MEAN_ANOMALY":122.1764,"EPHEMERIS_TYPE":0,"NORAD_CAT_ID":64583,"ELEMENT_SET_NO":999,"REV_AT_EPOCH":5842,"BSTAR":0.00034857927,"MEAN_MOTION_DOT":0.00003446,"MEAN_MOTION_DDOT":0},{"OBJECT_NAME":"CAPELLA-16 (ACADIA-6)","OBJECT_ID":"2025-188D","EPOCH":"2026-07-17T15:10:22.111104","CLASSIFICATION_TYPE":"U","MEAN_MOTION":14.94066782,"ECCENTRICITY":0.0005869,"INCLINATION":97.7378,"RA_OF_ASC_NODE":273.329,"ARG_OF_PERICENTER":128.2944,"MEAN_ANOMALY":231.8805,"EPHEMERIS_TYPE":0,"NORAD_CAT_ID":65318,"ELEMENT_SET_NO":999,"REV_AT_EPOCH":4846,"BSTAR":0.00031478,"MEAN_MOTION_DOT":0.00003306,"MEAN_MOTION_DDOT":0},{"OBJECT_NAME":"CAPELLA-19 (ACADIA-9)","OBJECT_ID":"2026-004X","EPOCH":"2026-07-17T21:22:51.806496","CLASSIFICATION_TYPE":"U","MEAN_MOTION":14.86653316,"ECCENTRICITY":0.00015143,"INCLINATION":97.8008,"RA_OF_ASC_NODE":196.7094,"ARG_OF_PERICENTER":95.3919,"MEAN_ANOMALY":264.7469,"EPHEMERIS_TYPE":0,"NORAD_CAT_ID":67384,"ELEMENT_SET_NO":999,"REV_AT_EPOCH":2783,"BSTAR":0.00028937757,"MEAN_MOTION_DOT":0.00002516,"MEAN_MOTION_DDOT":0},{"OBJECT_NAME":"CAPELLA-18 (ACADIA-8)","OBJECT_ID":"2026-004Y","EPOCH":"2026-07-17T23:14:14.752320","CLASSIFICATION_TYPE":"U","MEAN_MOTION":14.86643746,"ECCENTRICITY":0.0001441,"INCLINATION":97.8017,"RA_OF_ASC_NODE":196.9395,"ARG_OF_PERICENTER":96.5323,"MEAN_ANOMALY":263.6057,"EPHEMERIS_TYPE":0,"NORAD_CAT_ID":67385,"ELEMENT_SET_NO":999,"REV_AT_EPOCH":2785,"BSTAR":0.00024788608,"MEAN_MOTION_DOT":0.00002147,"MEAN_MOTION_DDOT":0},{"OBJECT_NAME":"CAPELLA-20 (ACADIA-10)","OBJECT_ID":"2026-067BX","EPOCH":"2026-07-17T14:43:17.431680","CLASSIFICATION_TYPE":"U","MEAN_MOTION":14.9169519,"ECCENTRICITY":0.0001278,"INCLINATION":97.7591,"RA_OF_ASC_NODE":156.4253,"ARG_OF_PERICENTER":146.6713,"MEAN_ANOMALY":213.4586,"EPHEMERIS_TYPE":0,"NORAD_CAT_ID":68485,"ELEMENT_SET_NO":999,"REV_AT_EPOCH":1626,"BSTAR":0.0002578,"MEAN_MOTION_DOT":0.00002538,"MEAN_MOTION_DDOT":0}]}
